[
  {
    "COMMENT": "GENERATED VIA SPACETRACK.ORG API",
    "ORIGINATOR": "18 SPCS",
    "NORAD_CAT_ID": "26997",
    "OBJECT_NAME": "JASON",
    "OBJECT_TYPE": "PAYLOAD",
    "CLASSIFICATION_TYPE": "U",
    "INTLDES": "01055A",
    "EPOCH": "2023-08-23 00:36:08",
    "EPOCH_MICROSECONDS": "75808",
    "MEAN_MOTION": "12.84025862",
    "ECCENTRICITY": "0.0006399",
    "INCLINATION": "66.0396",
    "RA_OF_ASC_NODE": "63.5927",
    "ARG_OF_PERICENTER": "269.1438",
    "MEAN_ANOMALY": "218.7741",
    "EPHEMERIS_TYPE": "0",
    "ELEMENT_SET_NO": "999",
    "REV_AT_EPOCH": "1673",
    "BSTAR": "0.00011466",
    "MEAN_MOTION_DOT": "-0.00000034",
    "MEAN_MOTION_DDOT": "0",
    "FILE": "3987421",
    "TLE_LINE0": "0 JASON",
    "TLE_LINE1": "1 26997U 01055A   23235.02509347 -.00000034  00000-0  11466-3 0  9998",
    "TLE_LINE2": "2 26997  66.0396  63.5927 0006399 269.1438 218.7741 12.84025862 16732",
    "OBJECT_ID": "2001-055A",
    "OBJECT_NUMBER": "26997",
    "SEMIMAJOR_AXIS": "7703.463",
    "PERIOD": "112.147",
    "APOGEE": "1330.257",
    "PERIGEE": "1320.398",
    "DECAYED": "0"
  },
  {
    "COMMENT": "GENERATED VIA SPACETRACK.ORG API",
    "ORIGINATOR": "18 SPCS",
    "NORAD_CAT_ID": "26997",
    "OBJECT_NAME": "JASON",
    "OBJECT_TYPE": "PAYLOAD",
    "CLASSIFICATION_TYPE": "U",
    "INTLDES": "01055A",
    "EPOCH": "2023-08-24 17:44:06",
    "EPOCH_MICROSECONDS": "456768",
    "MEAN_MOTION": "12.84025903",
    "ECCENTRICITY": "0.0006397",
    "INCLINATION": "66.0397",
    "RA_OF_ASC_NODE": "60.0122",
    "ARG_OF_PERICENTER": "269.2876",
    "MEAN_ANOMALY": "220.204",
    "EPHEMERIS_TYPE": "0",
    "ELEMENT_SET_NO": "999",
    "REV_AT_EPOCH": "1671",
    "BSTAR": "0.00010428",
    "MEAN_MOTION_DOT": "-0.00000037",
    "MEAN_MOTION_DDOT": "0",
    "FILE": "3988199",
    "TLE_LINE0": "0 JASON",
    "TLE_LINE1": "1 26997U 01055A   23236.73896362 -.00000037  00000-0  10428-3 0  9993",
    "TLE_LINE2": "2 26997  66.0397  60.0122 0006397 269.2876 220.2040 12.84025903 16711",
    "OBJECT_ID": "2001-055A",
    "OBJECT_NUMBER": "26997",
    "SEMIMAJOR_AXIS": "7703.463",
    "PERIOD": "112.147",
    "APOGEE": "1330.256",
    "PERIGEE": "1320.400",
    "DECAYED": "0"
  },
  {
    "COMMENT": "GENERATED VIA SPACETRACK.ORG API",
    "ORIGINATOR": "18 SPCS",
    "NORAD_CAT_ID": "26997",
    "OBJECT_NAME": "JASON",
    "OBJECT_TYPE": "PAYLOAD",
    "CLASSIFICATION_TYPE": "U",
    "INTLDES": "01055A",
    "EPOCH": "2023-08-25 13:56:10",
    "EPOCH_MICROSECONDS": "218912",
    "MEAN_MOTION": "12.84025967",
    "ECCENTRICITY": "0.0006394",
    "INCLINATION": "66.0397",
    "RA_OF_ASC_NODE": "58.2538",
    "ARG_OF_PERICENTER": "269.2886",
    "MEAN_ANOMALY": "150.6203",
    "EPHEMERIS_TYPE": "0",
    "ELEMENT_SET_NO": "999",
    "REV_AT_EPOCH": "1682",
    "BSTAR": "0.00012676",
    "MEAN_MOTION_DOT": "-0.00000031",
    "MEAN_MOTION_DDOT": "0",
    "FILE": "3988765",
    "TLE_LINE0": "0 JASON",
    "TLE_LINE1": "1 26997U 01055A   23237.58067383 -.00000031  00000-0  12676-3 0  9991",
    "TLE_LINE2": "2 26997  66.0397  58.2538 0006394 269.2886 150.6203 12.84025967 16828",
    "OBJECT_ID": "2001-055A",
    "OBJECT_NUMBER": "26997",
    "SEMIMAJOR_AXIS": "7703.462",
    "PERIOD": "112.147",
    "APOGEE": "1330.253",
    "PERIGEE": "1320.402",
    "DECAYED": "0"
  },
  {
    "COMMENT": "GENERATED VIA SPACETRACK.ORG API",
    "ORIGINATOR": "18 SPCS",
    "NORAD_CAT_ID": "26997",
    "OBJECT_NAME": "JASON",
    "OBJECT_TYPE": "PAYLOAD",
    "CLASSIFICATION_TYPE": "U",
    "INTLDES": "01055A",
    "EPOCH": "2023-08-25 17:47:08",
    "EPOCH_MICROSECONDS": "252736",
    "MEAN_MOTION": "12.84025952",
    "ECCENTRICITY": "0.0006397",
    "INCLINATION": "66.0398",
    "RA_OF_ASC_NODE": "57.9188",
    "ARG_OF_PERICENTER": "269.3438",
    "MEAN_ANOMALY": "171.9119",
    "EPHEMERIS_TYPE": "0",
    "ELEMENT_SET_NO": "999",
    "REV_AT_EPOCH": "1708",
    "BSTAR": "0.00012743",
    "MEAN_MOTION_DOT": "-0.00000031",
    "MEAN_MOTION_DDOT": "0",
    "FILE": "3988817",
    "TLE_LINE0": "0 JASON",
    "TLE_LINE1": "1 26997U 01055A   23237.74106774 -.00000031  00000-0  12743-3 0  9992",
    "TLE_LINE2": "2 26997  66.0398  57.9188 0006397 269.3438 171.9119 12.84025952 17088",
    "OBJECT_ID": "2001-055A",
    "OBJECT_NUMBER": "26997",
    "SEMIMAJOR_AXIS": "7703.463",
    "PERIOD": "112.147",
    "APOGEE": "1330.255",
    "PERIGEE": "1320.400",
    "DECAYED": "0"
  },
  {
    "COMMENT": "GENERATED VIA SPACETRACK.ORG API",
    "ORIGINATOR": "18 SPCS",
    "NORAD_CAT_ID": "26997",
    "OBJECT_NAME": "JASON",
    "OBJECT_TYPE": "PAYLOAD",
    "CLASSIFICATION_TYPE": "U",
    "INTLDES": "01055A",
    "EPOCH": "2023-08-25 21:38:30",
    "EPOCH_MICROSECONDS": "660000",
    "MEAN_MOTION": "12.84025961",
    "ECCENTRICITY": "0.0006396",
    "INCLINATION": "66.0398",
    "RA_OF_ASC_NODE": "57.5831",
    "ARG_OF_PERICENTER": "269.3571",
    "MEAN_ANOMALY": "194.5493",
    "EPHEMERIS_TYPE": "0",
    "ELEMENT_SET_NO": "999",
    "REV_AT_EPOCH": "1686",
    "BSTAR": "0.00013574",
    "MEAN_MOTION_DOT": "-0.00000029",
    "MEAN_MOTION_DDOT": "0",
    "FILE": "3989051",
    "TLE_LINE0": "0 JASON",
    "TLE_LINE1": "1 26997U 01055A   23237.90174375 -.00000029  00000-0  13574-3 0  9992",
    "TLE_LINE2": "2 26997  66.0398  57.5831 0006396 269.3571 194.5493 12.84025961 16867",
    "OBJECT_ID": "2001-055A",
    "OBJECT_NUMBER": "26997",
    "SEMIMAJOR_AXIS": "7703.462",
    "PERIOD": "112.147",
    "APOGEE": "1330.255",
    "PERIGEE": "1320.400",
    "DECAYED": "0"
  },
  {
    "COMMENT": "GENERATED VIA SPACETRACK.ORG API",
    "ORIGINATOR": "18 SPCS",
    "NORAD_CAT_ID": "26997",
    "OBJECT_NAME": "JASON",
    "OBJECT_TYPE": "PAYLOAD",
    "CLASSIFICATION_TYPE": "U",
    "INTLDES": "01055A",
    "EPOCH": "2023-08-25 23:45:35",
    "EPOCH_MICROSECONDS": "911008",
    "MEAN_MOTION": "12.8402597",
    "ECCENTRICITY": "0.0006396",
    "INCLINATION": "66.0398",
    "RA_OF_ASC_NODE": "57.3987",
    "ARG_OF_PERICENTER": "269.3585",
    "MEAN_ANOMALY": "242.467",
    "EPHEMERIS_TYPE": "0",
    "ELEMENT_SET_NO": "999",
    "REV_AT_EPOCH": "1687",
    "BSTAR": "0.00013911",
    "MEAN_MOTION_DOT": "-0.00000028",
    "MEAN_MOTION_DDOT": "0",
    "FILE": "3989608",
    "TLE_LINE0": "0 JASON",
    "TLE_LINE1": "1 26997U 01055A   23237.98999897 -.00000028  00000-0  13911-3 0  9998",
    "TLE_LINE2": "2 26997  66.0398  57.3987 0006396 269.3585 242.4670 12.84025970 16873",
    "OBJECT_ID": "2001-055A",
    "OBJECT_NUMBER": "26997",
    "SEMIMAJOR_AXIS": "7703.462",
    "PERIOD": "112.147",
    "APOGEE": "1330.255",
    "PERIGEE": "1320.400",
    "DECAYED": "0"
  },
  {
    "COMMENT": "GENERATED VIA SPACETRACK.ORG API",
    "ORIGINATOR": "18 SPCS",
    "NORAD_CAT_ID": "26997",
    "OBJECT_NAME": "JASON",
    "OBJECT_TYPE": "PAYLOAD",
    "CLASSIFICATION_TYPE": "U",
    "INTLDES": "01055A",
    "EPOCH": "2023-08-26 22:11:45",
    "EPOCH_MICROSECONDS": "827808",
    "MEAN_MOTION": "12.84026027",
    "ECCENTRICITY": "0.0006397",
    "INCLINATION": "66.0399",
    "RA_OF_ASC_NODE": "55.4458",
    "ARG_OF_PERICENTER": "269.3143",
    "MEAN_ANOMALY": "243.3644",
    "EPHEMERIS_TYPE": "0",
    "ELEMENT_SET_NO": "999",
    "REV_AT_EPOCH": "1699",
    "BSTAR": "0.00014673",
    "MEAN_MOTION_DOT": "-0.00000026",
    "MEAN_MOTION_DDOT": "0",
    "FILE": "3989878",
    "TLE_LINE0": "0 JASON",
    "TLE_LINE1": "1 26997U 01055A   23238.92483597 -.00000026  00000-0  14673-3 0  9992",
    "TLE_LINE2": "2 26997  66.0399  55.4458 0006397 269.3143 243.3644 12.84026027 16995",
    "OBJECT_ID": "2001-055A",
    "OBJECT_NUMBER": "26997",
    "SEMIMAJOR_AXIS": "7703.462",
    "PERIOD": "112.147",
    "APOGEE": "1330.255",
    "PERIGEE": "1320.399",
    "DECAYED": "0"
  },
  {
    "COMMENT": "GENERATED VIA SPACETRACK.ORG API",
    "ORIGINATOR": "18 SPCS",
    "NORAD_CAT_ID": "26997",
    "OBJECT_NAME": "JASON",
    "OBJECT_TYPE": "PAYLOAD",
    "CLASSIFICATION_TYPE": "U",
    "INTLDES": "01055A",
    "EPOCH": "2023-08-27 10:34:16",
    "EPOCH_MICROSECONDS": "970016",
    "MEAN_MOTION": "12.84026079",
    "ECCENTRICITY": "0.0006401",
    "INCLINATION": "66.04",
    "RA_OF_ASC_NODE": "54.3686",
    "ARG_OF_PERICENTER": "269.2562",
    "MEAN_ANOMALY": "106.7229",
    "EPHEMERIS_TYPE": "0",
    "ELEMENT_SET_NO": "999",
    "REV_AT_EPOCH": "1706",
    "BSTAR": "0.00014452",
    "MEAN_MOTION_DOT": "-0.00000027",
    "MEAN_MOTION_DDOT": "0",
    "FILE": "3990390",
    "TLE_LINE0": "0 JASON",
    "TLE_LINE1": "1 26997U 01055A   23239.44047419 -.00000027  00000-0  14452-3 0  9995",
    "TLE_LINE2": "2 26997  66.0400  54.3686 0006401 269.2562 106.7229 12.84026079 17066",
    "OBJECT_ID": "2001-055A",
    "OBJECT_NUMBER": "26997",
    "SEMIMAJOR_AXIS": "7703.462",
    "PERIOD": "112.147",
    "APOGEE": "1330.258",
    "PERIGEE": "1320.396",
    "DECAYED": "0"
  },
  {
    "COMMENT": "GENERATED VIA SPACETRACK.ORG API",
    "ORIGINATOR": "18 SPCS",
    "NORAD_CAT_ID": "26997",
    "OBJECT_NAME": "JASON",
    "OBJECT_TYPE": "PAYLOAD",
    "CLASSIFICATION_TYPE": "U",
    "INTLDES": "01055A",
    "EPOCH": "2023-08-27 18:24:42",
    "EPOCH_MICROSECONDS": "712128",
    "MEAN_MOTION": "12.84026069",
    "ECCENTRICITY": "0.0006397",
    "INCLINATION": "66.0401",
    "RA_OF_ASC_NODE": "53.6861",
    "ARG_OF_PERICENTER": "269.3328",
    "MEAN_ANOMALY": "176.6056",
    "EPHEMERIS_TYPE": "0",
    "ELEMENT_SET_NO": "999",
    "REV_AT_EPOCH": "1734",
    "BSTAR": "0.00013319",
    "MEAN_MOTION_DOT": "-0.0000003",
    "MEAN_MOTION_DDOT": "0",
    "FILE": "3990495",
    "TLE_LINE0": "0 JASON",
    "TLE_LINE1": "1 26997U 01055A   23239.76716102 -.00000030  00000-0  13319-3 0  9997",
    "TLE_LINE2": "2 26997  66.0401  53.6861 0006397 269.3328 176.6056 12.84026069 17343",
    "OBJECT_ID": "2001-055A",
    "OBJECT_NUMBER": "26997",
    "SEMIMAJOR_AXIS": "7703.462",
    "PERIOD": "112.147",
    "APOGEE": "1330.255",
    "PERIGEE": "1320.399",
    "DECAYED": "0"
  }
]